#dP2024  8 26 12  0  0.00000000      96 __u+U IGS20 EXT  IAC
## 2329 129600.00000000   900.00000000 60548 0.5000000000000
+   53   G01G02G03G04G05G06G07G08G09G10G11G12G13G14G15G16G17
+        G18G19G20G21G22G23G24G25G26G27G28G29G30G31G32R02R03
+        R04R05R07R08R09R11R12R14R15R16R17R18R19R20R21R22R24
+        R25R26  0  0  0  0  0  0  0  0  0  0  0  0  0  0  0
+          0  0  0  0  0  0  0  0  0  0  0  0  0  0  0  0  0
++        13  8  9  8  8  8  8  8  9  9  7  7  9  9  6  8  8
++         8  6  7  8  9  7  8  7  9  7  9  9  9  7  8  9  8
++         8  9  8  9  8  7  8  7  8  9  9  8 10 11  9  7  9
++         9  7  0  0  0  0  0  0  0  0  0  0  0  0  0  0  0
++         0  0  0  0  0  0  0  0  0  0  0  0  0  0  0  0  0
%c M  cc GPS ccc cccc cccc cccc cccc ccccc ccccc ccccc ccccc
%c cc cc ccc ccc cccc cccc cccc cccc ccccc ccccc ccccc ccccc
%f  0.0000000  0.000000000  0.00000000000  0.000000000000000
%f  0.0000000  0.000000000  0.00000000000  0.000000000000000
%i    0    0    0    0      0      0      0      0         0
%i    0    0    0    0      0      0      0      0         0
/* IAC                                ULTRA-RAPID PREDICTION
/* S/V CLOCKS ARE ALIGNED TO GNSS TIME                      
/* G:C1WC2W R:C1PC2P E:C1XC5X C:C2IC6I J:C1CC2S             
/* PCV:IGS20_2317 OL/AL:FES2004  NONE     YN ORB:CoN CLK:CoN
*  2024 08 27 10 30  0.00000000
PG01  -7371.385964  25234.971110   1788.443446    211.822203
PG02  22740.875630  13333.435786   4917.929999   -370.549907
PG03  13476.964268   6141.817643  21888.700217    515.803092
PG04  23542.232160   2309.696573  12234.328322    432.201132
PG05  -6608.420073 -21095.718719 -14853.863652   -184.592062
PG06   3518.049021 -15778.045646  21115.411552     71.398410
PG07  19282.495266    344.542487 -17928.798099    -45.698540
PG08  15434.518509   9437.817952 -19695.423318    331.071091
PG09  25521.964391  -7136.047518   2098.625481    331.269360
PG10 -10390.159367  22947.174544  -7653.473506   -106.349810
PG11  -9648.021943 -21635.888982  12108.475343   -727.188476
PG12 -12179.654434 -10332.108194  20949.165080   -533.531429
PG13  -6398.308062 -14060.681844 -21853.826345    673.172563
PG14  13132.337138 -20187.246747 -10903.804904    481.903175
PG15 -16540.836837  -8036.436819 -19738.745908    197.336877
PG16   1595.985202  23424.223643 -12306.428091   -197.316192
PG17  18971.097251 -13883.981705  12945.039534    643.885649
PG18 -18476.294372    313.488892 -19140.404926   -649.344238
PG19  11134.475742 -15188.080019  18398.341714    530.133858
PG20  -1960.570179 -26205.306099  -4313.773058    371.251349
PG21  21288.248540  16799.943965   -644.471036    102.850377
PG22   9780.456500 -24691.224021  -2537.478330    -55.683461
PG23 -14716.887556  12818.706635 -17884.412505    306.686379
PG24 -22028.889357 -15098.274687   1607.949673   -486.693755
PG25 -15782.206757   2923.457988  20783.018041    499.473102
PG26  -4150.328340  26010.289159    739.626990     91.973734
PG27   3850.812007  14873.381919 -21945.580998    -33.470139
PG28  -5496.769285  14877.024568  21293.935757   -388.559945
PG29 -26014.843065   2443.148391   5090.199296   -581.607747
PG30  11952.236237 -10270.954425 -21238.412562   -332.485994
PG31   5459.093192  20497.373508  15516.567325   -225.413368
PG32 -16894.571345  15397.100135  13568.060415   -602.531096
PR02  -3171.138782 -10946.254007 -22788.573471    -24.345832
PR03 -16955.588936   2166.748670 -18867.079317    106.427062
PR04 -21066.646393  13532.623069  -4801.900961    251.859429
PR05 -14003.359303  17705.489700  11857.834752    136.745882
PR07  17357.815591  -2647.244680  18560.744951     89.644377
PR08  20980.600663 -13791.580480   4667.680253     -6.392277
PR09   7793.337600  23302.487974  -6987.768647    205.747525
PR11   9712.899014  -6986.304316 -22511.107356     13.538468
PR12   1618.842293 -23108.621222 -10661.544864     44.123636
PR14 -11648.774305 -10237.394616  20262.725107     26.860346
PR15  -9400.834115   8773.231034  22055.841038     76.443126
PR16  -1587.679436  23020.348776  10929.702480     28.619925
PR17 -23927.988583  -8721.351769  -1859.620628    116.831281
PR18 -19182.515805    218.440068 -16775.567401    159.077742
PR19  -6887.588579   8229.171887 -23141.424762   -289.143836
PR20  14237.576458  14208.033446 -15697.166311   -118.255152
PR21  23737.775984   9198.636395   1242.761625   -129.439820
PR22  18574.268250   -793.620015  17493.340365     60.706513
PR24 -15175.571831 -13822.145595  15179.302715    -69.539895
PR25  23588.790662   9409.363746   2229.983881   -101.011014
PR26  20985.409233 -13142.689209   6100.678729     12.756702
*  2024 08 27 10 45  0.00000000
PG01  -7584.194402  24770.873807   4617.453827    211.814316
PG02  22900.182279  13702.879199   2104.689795   -370.542920
PG03  12969.915098   8593.815152  21377.361930    515.816006
PG04  22142.946739   2933.849455  14493.456934    432.207742
PG05  -6222.455551 -22600.384662 -12603.203276   -184.593211
PG06   5371.856161 -14192.193127  21849.350060     71.375866
PG07  20720.344156   1794.705594 -16248.185081    -45.693678
PG08  13337.818427  10342.279768 -20713.042075    331.083647
PG09  25227.107147  -6754.636934   4910.978511    331.283572
PG10 -10383.609242  21867.206345 -10321.072796   -106.360237
PG11  -8424.982278 -20734.081768  14384.145571   -727.193000
PG12 -11492.274593 -12636.652723  20071.366473   -533.534033
PG13  -3984.675972 -14543.015033 -22091.765361    673.174434
PG14  13098.762994 -18764.163182 -13246.923193    481.910960
PG15 -14631.934058  -9170.442242 -20737.363481    197.340835
PG16   1028.174071  24547.912523  -9824.423993   -197.306930
PG17  20249.756753 -14059.937287  10525.948395    643.876514
PG18 -19965.059449  -1162.234309 -17568.089210   -649.346715
PG19  13167.355830 -15496.634170  16698.841823    530.138432
PG20  -1698.484079 -26541.949794  -1504.375917    371.250994
PG21  20966.428809  16784.432945  -3428.263912    102.849801
PG22   9871.415707 -24153.350609  -5328.098307    -55.687066
PG23 -14490.893170  10685.270309 -19422.190363    306.694099
PG24 -21915.364642 -15383.562456  -1170.540594   -486.694001
PG25 -15425.402655    464.488531  21261.695256    499.473250
PG26  -4491.115746  25707.563232   3540.582245     91.966551
PG27   1544.996437  15656.850953 -21641.132187    -33.470443
PG28  -7435.925435  13358.928405  21707.548725   -388.572990
PG29 -25352.892752   2049.315452   7829.128414   -581.605608
PG30  13785.973788  -8648.947790 -20873.054355   -332.479789
PG31   3885.448533  19353.378538  17359.876773   -225.412947
PG32 -18277.885087  15668.963207  11204.843537   -602.528263
PR02  -1061.556756 -12750.914840 -22040.863677    -24.346033
PR03 -15039.667591    649.027226 -20533.021703    106.427937
PR04 -20350.176627  13161.768504  -7905.968314    251.861013
PR05 -14893.848282  18647.663651   8975.218381    136.746493
PR07  15473.952546  -1174.957814  20295.962329     89.645037
PR08  20296.312603 -13424.680101   7766.072496     -6.392334
PR09   8027.447432  23940.289664  -3900.836434    205.749513
PR11  10228.302576  -4224.064631 -22967.308167     13.537422
PR12   1782.920123 -21625.248136 -13389.609990     44.124036
PR14 -12170.392726 -12572.475948  18567.785840     26.860408
PR15  -9879.979709   6057.458061  22748.517373     76.442717
PR16  -1742.925515  21509.560584  13646.128300     28.620219
PR17 -24023.871256  -8550.197767   1368.713137    116.834098
PR18 -21039.148202   -325.636270 -14375.942153    159.079459
PR19  -9511.154242   7183.553737 -22553.838161   -289.145147
PR20  12378.087708  13264.847257 -17935.495291   -118.255638
PR21  23764.095744   8995.642835  -1996.715389   -129.442790
PR22  20480.096936   -132.506436  15234.588396     60.699030
PR24 -13325.381850 -13031.112576  17446.556563    -69.541329
PR25  23714.528552   9303.558594   -982.840572   -101.011274
PR26  20171.103330 -12649.689705   9141.228059     12.761412
EOF
